COSMOS 1743             
1 16719U 86034A   25315.17161224  .00035898  00000+0  63800-3 0  9997
2 16719  82.5374 197.3229 0007534  22.5448 337.6132 15.49982219161847
SL-14 R/B               
1 16792U 86046B   25315.12227270  .00000748  00000+0  83689-4 0  9994
2 16792  82.4835 192.1705 0021642 259.5325 100.3452 14.85436994108803
SL-14 R/B               
1 16882U 86055B   25315.27494788  .00001120  00000+0  12668-3 0  9993
2 16882  82.5215 237.9337 0019283   8.8395 152.3611 14.85478950101787
AJISAI (EGS)            
1 16908U 86061A   25315.32906244 -.00000102  00000+0 -29393-4 0  9995
2 16908  50.0078  97.3012 0011187 346.7861  20.1165 12.44514109453267
COSMOS 1812             
1 17295U 87003A   25315.28657011  .00086656  00000+0  74408-3 0  9994
2 17295  82.4891 325.8958 0004829 141.8131 218.3473 15.69054820125714
SL-14 R/B               
1 17567U 87024B   25315.19870289  .00000929  00000+0  10339-3 0  9995
2 17567  82.5304 204.0796 0016936 295.7075  64.2392 14.85977260 70538
COSMOS 1833             
1 17589U 87027A   25315.14488530 -.00000216  00000+0 -89584-4 0  9991
2 17589  70.9151 215.1938 0021125  16.2294 343.9499 14.13020437993567
SL-16 R/B               
1 17590U 87027B   25315.03908162  .00000063  00000+0  54978-4 0  9996
2 17590  71.0011 166.5169 0007128 292.8062  67.2308 14.17147239998578
SL-14 R/B               
1 17912U 87038B   25315.26755521  .00001052  00000+0  11961-3 0  9993
2 17912  82.5036  48.3371 0019003 191.8462 168.2309 14.85213463 61650
COSMOS 1844             
1 17973U 87041A   25315.30552014  .00000528  00000+0  29890-3 0  9998
2 17973  70.8985 283.8697 0031781 204.2280 155.7349 14.14520021986846
SL-14 R/B               
1 18153U 87055B   25315.13027226  .00000881  00000+0  98935-4 0  9996
2 18153  82.4972 100.7765 0021800  48.3685 311.9394 14.85468494 52339
COSMOS 1867             
1 18187U 87060A   25315.30444107  .00000073  00000+0  65086-4 0  9993
2 18187  65.0101 278.2323 0013699 268.0094  91.9421 14.31478239  2992
