CCSDS_OMM_VERS = 2.0
CREATION_DATE  = 
ORIGINATOR     = 

OBJECT_NAME    = COSMOS 1743
OBJECT_ID      = 1986-034A
CENTER_NAME    = EARTH
REF_FRAME      = TEME
TIME_SYSTEM    = UTC
MEAN_ELEMENT_THEORY = SGP/SGP4

EPOCH          = 2025-11-11T04:07:07.297536
MEAN_MOTION    = 15.49982219
ECCENTRICITY   = .00075348
INCLINATION    = 82.5374
RA_OF_ASC_NODE = 197.3229
ARG_OF_PERICENTER = 22.5448
MEAN_ANOMALY   = 337.6132

EPHEMERIS_TYPE = 0
CLASSIFICATION_TYPE = U
NORAD_CAT_ID   = 16719
ELEMENT_SET_NO = 999
REV_AT_EPOCH   = 16184
BSTAR          = .63800446E-3
MEAN_MOTION_DOT = .35898E-3
MEAN_MOTION_DDOT = 0

CCSDS_OMM_VERS = 2.0
CREATION_DATE  = 
ORIGINATOR     = 

OBJECT_NAME    = SL-14 R/B
OBJECT_ID      = 1986-046B
CENTER_NAME    = EARTH
REF_FRAME      = TEME
TIME_SYSTEM    = UTC
MEAN_ELEMENT_THEORY = SGP/SGP4

EPOCH          = 2025-11-11T02:56:04.361280
MEAN_MOTION    = 14.85436994
ECCENTRICITY   = .00216428
INCLINATION    = 82.4835
RA_OF_ASC_NODE = 192.1705
ARG_OF_PERICENTER = 259.5325
MEAN_ANOMALY   = 100.3452

EPHEMERIS_TYPE = 0
CLASSIFICATION_TYPE = U
NORAD_CAT_ID   = 16792
ELEMENT_SET_NO = 999
REV_AT_EPOCH   = 10880
BSTAR          = .83688761E-4
MEAN_MOTION_DOT = .748E-5
MEAN_MOTION_DDOT = 0

CCSDS_OMM_VERS = 2.0
CREATION_DATE  = 
ORIGINATOR     = 

OBJECT_NAME    = SL-14 R/B
OBJECT_ID      = 1986-055B
CENTER_NAME    = EARTH
REF_FRAME      = TEME
TIME_SYSTEM    = UTC
MEAN_ELEMENT_THEORY = SGP/SGP4

EPOCH          = 2025-11-11T06:35:55.496832
MEAN_MOTION    = 14.85478950
ECCENTRICITY   = .00192836
INCLINATION    = 82.5215
RA_OF_ASC_NODE = 237.9337
ARG_OF_PERICENTER = 8.8395
MEAN_ANOMALY   = 152.3611

EPHEMERIS_TYPE = 0
CLASSIFICATION_TYPE = U
NORAD_CAT_ID   = 16882
ELEMENT_SET_NO = 999
REV_AT_EPOCH   = 10178
BSTAR          = .1266833E-3
MEAN_MOTION_DOT = .112E-4
MEAN_MOTION_DDOT = 0

CCSDS_OMM_VERS = 2.0
CREATION_DATE  = 
ORIGINATOR     = 

OBJECT_NAME    = AJISAI (EGS)
OBJECT_ID      = 1986-061A
CENTER_NAME    = EARTH
REF_FRAME      = TEME
TIME_SYSTEM    = UTC
MEAN_ELEMENT_THEORY = SGP/SGP4

EPOCH          = 2025-11-11T07:53:50.994816
MEAN_MOTION    = 12.44514109
ECCENTRICITY   = .00111871
INCLINATION    = 50.0078
RA_OF_ASC_NODE = 97.3012
ARG_OF_PERICENTER = 346.7861
MEAN_ANOMALY   = 20.1165

EPHEMERIS_TYPE = 0
CLASSIFICATION_TYPE = U
NORAD_CAT_ID   = 16908
ELEMENT_SET_NO = 999
REV_AT_EPOCH   = 45326
BSTAR          = -.29393033E-4
MEAN_MOTION_DOT = -.102E-5
MEAN_MOTION_DDOT = 0

CCSDS_OMM_VERS = 2.0
CREATION_DATE  = 
ORIGINATOR     = 

OBJECT_NAME    = COSMOS 1812
OBJECT_ID      = 1987-003A
CENTER_NAME    = EARTH
REF_FRAME      = TEME
TIME_SYSTEM    = UTC
MEAN_ELEMENT_THEORY = SGP/SGP4

EPOCH          = 2025-11-11T06:52:39.657504
MEAN_MOTION    = 15.69054820
ECCENTRICITY   = .0004829
INCLINATION    = 82.4891
RA_OF_ASC_NODE = 325.8958
ARG_OF_PERICENTER = 141.8131
MEAN_ANOMALY   = 218.3473

EPHEMERIS_TYPE = 0
CLASSIFICATION_TYPE = U
NORAD_CAT_ID   = 17295
ELEMENT_SET_NO = 999
REV_AT_EPOCH   = 12571
BSTAR          = .74407767E-3
MEAN_MOTION_DOT = .86656E-3
MEAN_MOTION_DDOT = 0

CCSDS_OMM_VERS = 2.0
CREATION_DATE  = 
ORIGINATOR     = 

OBJECT_NAME    = SL-14 R/B
OBJECT_ID      = 1987-024B
CENTER_NAME    = EARTH
REF_FRAME      = TEME
TIME_SYSTEM    = UTC
MEAN_ELEMENT_THEORY = SGP/SGP4

EPOCH          = 2025-11-11T04:46:07.929696
MEAN_MOTION    = 14.85977260
ECCENTRICITY   = .0016936
INCLINATION    = 82.5304
RA_OF_ASC_NODE = 204.0796
ARG_OF_PERICENTER = 295.7075
MEAN_ANOMALY   = 64.2392

EPHEMERIS_TYPE = 0
CLASSIFICATION_TYPE = U
NORAD_CAT_ID   = 17567
ELEMENT_SET_NO = 999
REV_AT_EPOCH   = 7053
BSTAR          = .10339372E-3
MEAN_MOTION_DOT = .929E-5
MEAN_MOTION_DDOT = 0

CCSDS_OMM_VERS = 2.0
CREATION_DATE  = 
ORIGINATOR     = 

OBJECT_NAME    = COSMOS 1833
OBJECT_ID      = 1987-027A
CENTER_NAME    = EARTH
REF_FRAME      = TEME
TIME_SYSTEM    = UTC
MEAN_ELEMENT_THEORY = SGP/SGP4

EPOCH          = 2025-11-11T03:28:38.089920
MEAN_MOTION    = 14.13020437
ECCENTRICITY   = .0021125
INCLINATION    = 70.9151
RA_OF_ASC_NODE = 215.1938
ARG_OF_PERICENTER = 16.2294
MEAN_ANOMALY   = 343.9499

EPHEMERIS_TYPE = 0
CLASSIFICATION_TYPE = U
NORAD_CAT_ID   = 17589
ELEMENT_SET_NO = 999
REV_AT_EPOCH   = 99356
BSTAR          = -.89583558E-4
MEAN_MOTION_DOT = -.216E-5
MEAN_MOTION_DDOT = 0

CCSDS_OMM_VERS = 2.0
CREATION_DATE  = 
ORIGINATOR     = 

OBJECT_NAME    = SL-16 R/B
OBJECT_ID      = 1987-027B
CENTER_NAME    = EARTH
REF_FRAME      = TEME
TIME_SYSTEM    = UTC
MEAN_ELEMENT_THEORY = SGP/SGP4

EPOCH          = 2025-11-11T00:56:16.651968
MEAN_MOTION    = 14.17147239
ECCENTRICITY   = .00071284
INCLINATION    = 71.0011
RA_OF_ASC_NODE = 166.5169
ARG_OF_PERICENTER = 292.8062
MEAN_ANOMALY   = 67.2308

EPHEMERIS_TYPE = 0
CLASSIFICATION_TYPE = U
NORAD_CAT_ID   = 17590
ELEMENT_SET_NO = 999
REV_AT_EPOCH   = 99857
BSTAR          = .54977506E-4
MEAN_MOTION_DOT = .63E-6
MEAN_MOTION_DDOT = 0

CCSDS_OMM_VERS = 2.0
CREATION_DATE  = 
ORIGINATOR     = 

OBJECT_NAME    = SL-14 R/B
OBJECT_ID      = 1987-038B
CENTER_NAME    = EARTH
REF_FRAME      = TEME
TIME_SYSTEM    = UTC
MEAN_ELEMENT_THEORY = SGP/SGP4

EPOCH          = 2025-11-11T06:25:16.770144
MEAN_MOTION    = 14.85213463
ECCENTRICITY   = .0019003
INCLINATION    = 82.5036
RA_OF_ASC_NODE = 48.3371
ARG_OF_PERICENTER = 191.8462
MEAN_ANOMALY   = 168.2309

EPHEMERIS_TYPE = 0
CLASSIFICATION_TYPE = U
NORAD_CAT_ID   = 17912
ELEMENT_SET_NO = 999
REV_AT_EPOCH   = 6165
BSTAR          = .11961272E-3
MEAN_MOTION_DOT = .1052E-4
MEAN_MOTION_DDOT = 0

CCSDS_OMM_VERS = 2.0
CREATION_DATE  = 
ORIGINATOR     = 

OBJECT_NAME    = COSMOS 1844
OBJECT_ID      = 1987-041A
CENTER_NAME    = EARTH
REF_FRAME      = TEME
TIME_SYSTEM    = UTC
MEAN_ELEMENT_THEORY = SGP/SGP4

EPOCH          = 2025-11-11T07:19:56.940096
MEAN_MOTION    = 14.14520021
ECCENTRICITY   = .00317819
INCLINATION    = 70.8985
RA_OF_ASC_NODE = 283.8697
ARG_OF_PERICENTER = 204.2280
MEAN_ANOMALY   = 155.7349

EPHEMERIS_TYPE = 0
CLASSIFICATION_TYPE = U
NORAD_CAT_ID   = 17973
ELEMENT_SET_NO = 999
REV_AT_EPOCH   = 98684
BSTAR          = .2988991E-3
MEAN_MOTION_DOT = .528E-5
MEAN_MOTION_DDOT = 0

CCSDS_OMM_VERS = 2.0
CREATION_DATE  = 
ORIGINATOR     = 

OBJECT_NAME    = SL-14 R/B
OBJECT_ID      = 1987-055B
CENTER_NAME    = EARTH
REF_FRAME      = TEME
TIME_SYSTEM    = UTC
MEAN_ELEMENT_THEORY = SGP/SGP4

EPOCH          = 2025-11-11T03:07:35.523264
MEAN_MOTION    = 14.85468494
ECCENTRICITY   = .00218009
INCLINATION    = 82.4972
RA_OF_ASC_NODE = 100.7765
ARG_OF_PERICENTER = 48.3685
MEAN_ANOMALY   = 311.9394

EPHEMERIS_TYPE = 0
CLASSIFICATION_TYPE = U
NORAD_CAT_ID   = 18153
ELEMENT_SET_NO = 999
REV_AT_EPOCH   = 5233
BSTAR          = .98934553E-4
MEAN_MOTION_DOT = .881E-5
MEAN_MOTION_DDOT = 0

CCSDS_OMM_VERS = 2.0
CREATION_DATE  = 
ORIGINATOR     = 

OBJECT_NAME    = COSMOS 1867
OBJECT_ID      = 1987-060A
CENTER_NAME    = EARTH
REF_FRAME      = TEME
TIME_SYSTEM    = UTC
MEAN_ELEMENT_THEORY = SGP/SGP4

EPOCH          = 2025-11-11T07:18:23.708448
MEAN_MOTION    = 14.31478239
ECCENTRICITY   = .00136992
INCLINATION    = 65.0101
RA_OF_ASC_NODE = 278.2323
ARG_OF_PERICENTER = 268.0094
MEAN_ANOMALY   = 91.9421

EPHEMERIS_TYPE = 0
CLASSIFICATION_TYPE = U
NORAD_CAT_ID   = 18187
ELEMENT_SET_NO = 999
REV_AT_EPOCH   = 299
BSTAR          = .65085861E-4
MEAN_MOTION_DOT = .73E-6
MEAN_MOTION_DDOT = 0

